[Satellite]
VERSION=1.1
NAME=CAS-4A
NICKNAME=CAS-4A
TLE1=1 42761U 17034D   22342.53988728  .00004895  00000+0  28053-3 0  9994
TLE2=2 42761  43.0162  90.8450 0011786 310.4922 113.9095 15.13511638302724
STATUS=0
